[{"OBJECT_NAME":"ASTROCAST-0403","OBJECT_ID":"2023-001DG","EPOCH":"2026-03-09T19:45:35.762976","MEAN_MOTION":15.28004949,"ECCENTRICITY":0.00047706,"INCLINATION":97.5604,"RA_OF_ASC_NODE":161.3228,"ARG_OF_PERICENTER":338.0704,"MEAN_ANOMALY":22.033,"EPHEMERIS_TYPE":0,"CLASSIFICATION_TYPE":"U","NORAD_CAT_ID":55111,"ELEMENT_SET_NO":999,"REV_AT_EPOCH":12937,"BSTAR":0.0005131719,"MEAN_MOTION_DOT":0.00013959,"MEAN_MOTION_DDOT":0},{"OBJECT_NAME":"STARLINK-34077","OBJECT_ID":"2025-101R","EPOCH":"2026-03-09T03:18:42.312672","MEAN_MOTION":15.27604249,"ECCENTRICITY":0.00012169,"INCLINATION":43.0039,"RA_OF_ASC_NODE":0.8363,"ARG_OF_PERICENTER":287.6209,"MEAN_ANOMALY":72.4509,"EPHEMERIS_TYPE":0,"CLASSIFICATION_TYPE":"U","NORAD_CAT_ID":64009,"ELEMENT_SET_NO":999,"REV_AT_EPOCH":4697,"BSTAR":0.0012077547,"MEAN_MOTION_DOT":0.00033147,"MEAN_MOTION_DDOT":0}]
